NORAD_CAT_ID,OBJECT_NAME,OBJECT_TYPE,EPOCH,MEAN_MOTION,ECCENTRICITY,INCLINATION,RA_OF_ASC_NODE,ARG_OF_PERICENTER,MEAN_ANOMALY,BSTAR,MEAN_MOTION_DOT,MEAN_MOTION_DDOT,TLE_LINE0,TLE_LINE1,TLE_LINE2,SEMIMAJOR_AXIS,PERIOD,APOGEE,PERIGEE,DECAYED
53984.0,STARLINK-5142,PAYLOAD,2023-02-23 19:01:41,15.08853317,0.0001137,53.2151,156.7964,76.1917,283.9201,0.001886,0.00029866,0.0,0 STARLINK-5142,1 53984U 22125W   23054.79283853  .00029866  00000-0  18860-2 0  9996,2 53984  53.2151 156.7964 0001137  76.1917 283.9201 15.08853317 21907,6917.84,95.437,540.491,538.918,0.0
53984.0,STARLINK-5142,PAYLOAD,2023-02-23 23:47:50,15.08834339,3.67e-05,53.215,155.9032,129.2246,230.8778,9.5062e-05,1.226e-05,0.0,0 STARLINK-5142,1 53984U 22125W   23054.99155821  .00001226  00000-0  95062-4 0  9992,2 53984  53.2150 155.9032 0000367 129.2246 230.8778 15.08834339 22007,6917.898,95.438,540.017,539.509,0.0
53984.0,STARLINK-5142,PAYLOAD,2023-02-24 12:30:56,15.08850821,9.33e-05,53.2145,153.5246,98.8893,261.2205,0.0015836,0.00025012,0.0,0 STARLINK-5142,1 53984U 22125W   23055.52148168  .00025012  00000-0  15836-2 0  9996,2 53984  53.2145 153.5246 0000933  98.8893 261.2205 15.08850821 22018,6917.847,95.437,540.358,539.067,0.0
53984.0,STARLINK-5142,PAYLOAD,2023-02-24 14:06:19,15.08854444,9.34e-05,53.2146,153.2274,96.0456,264.0642,0.0017158,0.00027135,0.0,0 STARLINK-5142,1 53984U 22125W   23055.58772128  .00027135  00000-0  17158-2 0  9998,2 53984  53.2146 153.2274 0000934  96.0456 264.0642 15.08854444 22092,6917.836,95.437,540.347,539.055,0.0
53984.0,STARLINK-5142,PAYLOAD,2023-02-24 18:52:28,15.08865156,9.71e-05,53.2144,152.3351,94.88,265.2303,0.0018596,0.00029452,0.0,0 STARLINK-5142,1 53984U 22125W   23055.78643888  .00029452  00000-0  18596-2 0  9991,2 53984  53.2144 152.3351 0000971  94.8800 265.2303 15.08865156 22051,6917.803,95.436,540.34,538.997,0.0
53984.0,STARLINK-5142,PAYLOAD,2023-02-24 23:38:37,15.08828844,8.07e-05,53.2147,151.4429,129.3696,230.7368,-0.00051109,-8.41e-05,0.0,0 STARLINK-5142,1 53984U 22125W   23055.98516158 -.00008410  00000-0 -51109-3 0  9993,2 53984  53.2147 151.4429 0000807 129.3696 230.7368 15.08828844 22157,6917.914,95.438,540.338,539.221,0.0
53984.0,STARLINK-5142,PAYLOAD,2023-02-25 23:29:25,15.08854686,6.55e-05,53.2146,146.9826,125.8964,234.2089,0.0019573,0.00031012,0.0,0 STARLINK-5142,1 53984U 22125W   23056.97876939  .00031012  00000-0  19573-2 0  9999,2 53984  53.2146 146.9826 0000655 125.8964 234.2089 15.08854686 22305,6917.836,95.437,540.154,539.247,0.0
53984.0,STARLINK-5142,PAYLOAD,2023-02-26 10:37:07,15.08870145,0.0001016,53.2154,144.9022,98.5934,261.5174,0.0015044,0.00023755,0.0,0 STARLINK-5142,1 53984U 22125W   23057.44244426  .00023755  00000-0  15044-2 0  9996,2 53984  53.2154 144.9022 0001016  98.5934 261.5174 15.08870145 22301,6917.788,95.436,540.356,538.95,0.0
53984.0,STARLINK-5142,PAYLOAD,2023-02-26 16:58:38,15.08895891,0.0001202,53.2152,143.7118,97.9536,262.1593,0.0019885,0.00031549,0.0,0 STARLINK-5142,1 53984U 22125W   23057.70739554  .00031549  00000-0  19885-2 0  9993,2 53984  53.2152 143.7118 0001202  97.9536 262.1593 15.08895891 22341,6917.71,95.434,540.406,538.743,0.0
53984.0,STARLINK-5142,PAYLOAD,2023-02-27 12:03:17,15.0888412,0.0001164,53.2157,140.1429,81.2504,278.862,0.0053068,0.00085296,0.0,0 STARLINK-5142,1 53984U 22125W   23058.50228650  .00085296  00000-0  53068-2 0  9991,2 53984  53.2157 140.1429 0001164  81.2504 278.8620 15.08884120 22539,6917.746,95.435,540.416,538.805,0.0
53984.0,STARLINK-5142,PAYLOAD,2023-02-27 20:00:12,15.08876871,0.000133,53.2151,138.6552,62.1748,297.9379,0.0028449,0.00045326,0.0,0 STARLINK-5142,1 53984U 22125W   23058.83348176  .00045326  00000-0  28449-2 0  9998,2 53984  53.2151 138.6552 0001330  62.1748 297.9379 15.08876871 22510,6917.768,95.435,540.553,538.713,0.0
53984.0,STARLINK-5142,PAYLOAD,2023-02-28 10:18:40,15.0887799,9.91e-05,53.2159,135.9794,84.0113,276.0992,0.0025367,0.00040357,0.0,0 STARLINK-5142,1 53984U 22125W   23059.42963517  .00040357  00000-0  25367-2 0  9991,2 53984  53.2159 135.9794 0000991  84.0113 276.0992 15.08877990 22676,6917.764,95.435,540.315,538.944,0.0
53984.0,STARLINK-5142,PAYLOAD,2023-02-28 21:26:22,15.08810589,0.0001003,53.2167,133.8976,113.7542,246.3555,-0.0026382,-0.00041996,0.0,0 STARLINK-5142,1 53984U 22125W   23059.89331741 -.00041996  00000-0 -26382-2 0  9990,2 53984  53.2167 133.8976 0001003 113.7542 246.3555 15.08810589 22671,6917.97,95.439,540.529,539.141,0.0
53984.0,STARLINK-5142,PAYLOAD,2023-03-01 03:47:55,15.08795396,9.98e-05,53.2173,132.711,135.3171,224.7901,-0.0016129,-0.00025834,0.0,0 STARLINK-5142,1 53984U 22125W   23060.15828535 -.00025834  00000-0 -16129-2 0  9994,2 53984  53.2173 132.7110 0000998 135.3171 224.7901 15.08795396 22781,6918.017,95.44,540.572,539.191,0.0
53984.0,STARLINK-5142,PAYLOAD,2023-03-01 10:09:29,15.08798718,0.000127,53.2155,131.5192,119.738,240.3738,0.0011959,0.00018774,0.0,0 STARLINK-5142,1 53984U 22125W   23060.42325690  .00018774  00000-0  11959-2 0  9997,2 53984  53.2155 131.5192 0001270 119.7380 240.3738 15.08798718 22828,6918.007,95.44,540.75,538.993,0.0
53984.0,STARLINK-5142,PAYLOAD,2023-03-01 21:17:12,15.08819162,0.0001366,53.2162,129.4386,113.0641,247.0495,0.0016558,0.00026147,0.0,0 STARLINK-5142,1 53984U 22125W   23060.88694787  .00026147  00000-0  16558-2 0  9996,2 53984  53.2162 129.4386 0001366 113.0641 247.0495 15.08819162 22821,6917.944,95.439,540.754,538.864,0.0
53984.0,STARLINK-5142,PAYLOAD,2023-03-02 14:46:28,15.088341,0.0001282,53.2169,126.1645,117.4272,242.6851,0.0028778,0.00045803,0.0,0 STARLINK-5142,1 53984U 22125W   23061.61560619  .00045803  00000-0  28778-2 0  9991,2 53984  53.2169 126.1645 0001282 117.4272 242.6851 15.08834100 23002,6917.898,95.438,540.65,538.877,0.0
53984.0,STARLINK-5142,PAYLOAD,2023-03-03 13:01:49,15.08931523,0.0001065,53.2154,122.0039,114.3201,245.7902,0.0032566,0.00052054,0.0,0 STARLINK-5142,1 53984U 22125W   23062.54293751  .00052054  00000-0  32566-2 0  9990,2 53984  53.2154 122.0039 0001065 114.3201 245.7902 15.08931523 23148,6917.601,95.432,540.202,538.729,0.0
53984.0,STARLINK-5142,PAYLOAD,2023-03-03 16:12:35,15.08937334,0.0001288,53.2148,121.4091,87.6344,272.4796,0.0027979,0.00044642,0.0,0 STARLINK-5142,1 53984U 22125W   23062.67541126  .00044642  00000-0  27979-2 0  9992,2 53984  53.2148 121.4091 0001288  87.6344 272.4796 15.08937334 23165,6917.583,95.431,540.339,538.557,0.0
53984.0,STARLINK-5142,PAYLOAD,2023-03-03 20:58:45,15.08890774,0.0002001,53.2156,120.517,78.0257,282.0959,0.001181,0.00018584,0.0,0 STARLINK-5142,1 53984U 22125W   23062.87413719  .00018584  00000-0  11810-2 0  9993,2 53984  53.2156 120.5170 0002001  78.0257 282.0959 15.08890774 23123,6917.725,95.434,540.974,538.206,0.0
53984.0,STARLINK-5142,PAYLOAD,2023-03-04 03:20:18,15.08880943,0.0003348,53.2134,119.3287,79.9776,280.1594,0.00095647,0.00014985,0.0,0 STARLINK-5142,1 53984U 22125W   23063.13909745  .00014985  00000-0  95647-3 0  9994,2 53984  53.2134 119.3287 0003348  79.9776 280.1594 15.08880943 23238,6917.755,95.435,541.936,537.304,0.0
53984.0,STARLINK-5142,PAYLOAD,2023-03-04 11:17:13,15.08880008,0.0001669,53.2158,117.8407,79.7958,280.3222,0.0026625,0.00042388,0.0,0 STARLINK-5142,1 53984U 22125W   23063.47029020  .00042388  00000-0  26625-2 0  9997,2 53984  53.2158 117.8407 0001669  79.7958 280.3222 15.08880008 23215,6917.758,95.435,540.778,538.469,0.0
53984.0,STARLINK-5142,PAYLOAD,2023-03-04 20:49:31,15.08835716,0.0001517,53.2153,116.0561,103.6915,256.4246,-0.00097602,-0.00015786,0.0,0 STARLINK-5142,1 53984U 22125W   23063.86772887 -.00015786  00000-0 -97602-3 0  9994,2 53984  53.2153 116.0561 0001517 103.6915 256.4246 15.08835716 23276,6917.893,95.438,540.808,538.709,0.0
53984.0,STARLINK-5142,PAYLOAD,2023-03-05 07:57:14,15.08843847,0.0001603,53.2157,113.9734,104.1322,255.9848,0.0018563,0.00029382,0.0,0 STARLINK-5142,1 53984U 22125W   23064.33141445  .00029382  00000-0  18563-2 0  9990,2 53984  53.2157 113.9734 0001603 104.1322 255.9848 15.08843847 23346,6917.869,95.437,540.843,538.625,0.0
53984.0,STARLINK-5142,PAYLOAD,2023-03-05 09:32:37,15.08847783,0.0001655,53.2155,113.6763,102.3382,257.7796,0.0024437,0.00038826,0.0,0 STARLINK-5142,1 53984U 22125W   23064.39765514  .00038826  00000-0  24437-2 0  9995,2 53984  53.2155 113.6763 0001655 102.3382 257.7796 15.08847783 23420,6917.857,95.437,540.867,538.577,0.0
53984.0,STARLINK-5142,PAYLOAD,2023-03-05 20:40:19,15.08849374,0.0002101,53.2151,111.5955,84.9929,275.1302,0.0019619,0.00031082,0.0,0 STARLINK-5142,1 53984U 22125W   23064.86133993  .00031082  00000-0  19619-2 0  9990,2 53984  53.2151 111.5955 0002101  84.9929 275.1302 15.08849374 23420,6917.852,95.437,541.17,538.263,0.0
53984.0,STARLINK-5142,PAYLOAD,2023-03-06 03:01:52,15.08851636,0.0002026,53.2157,110.4077,85.906,274.2164,0.0011588,0.00018208,0.0,0 STARLINK-5142,1 53984U 22125W   23065.12629892  .00018208  00000-0  11588-2 0  9990,2 53984  53.2157 110.4077 0002026  85.9060 274.2164 15.08851636 23534,6917.845,95.437,541.111,538.308,0.0
53984.0,STARLINK-5142,PAYLOAD,2023-03-06 14:09:33,15.08871261,0.000201,53.2155,108.3231,96.7597,263.3623,0.0012129,0.00019085,0.0,0 STARLINK-5142,1 53984U 22125W   23065.58997016  .00019085  00000-0  12129-2 0  9992,2 53984  53.2155 108.3231 0002010  96.7597 263.3623 15.08871261 23533,6917.785,95.436,541.04,538.259,0.0
53984.0,STARLINK-5142,PAYLOAD,2023-03-07 09:14:11,15.08839024,0.0001807,53.2156,104.7557,102.786,257.3335,0.00043609,6.659e-05,0.0,0 STARLINK-5142,1 53984U 22125W   23066.38485993  .00006659  00000-0  43609-3 0  9998,2 53984  53.2156 104.7557 0001807 102.7860 257.3335 15.08839024 23724,6917.883,95.438,540.998,538.498,0.0
53984.0,STARLINK-5142,PAYLOAD,2023-03-07 14:00:21,15.08848231,0.0001738,53.2159,103.8626,109.0069,251.1112,0.001912,0.0003028,0.0,0 STARLINK-5142,1 53984U 22125W   23066.58358066  .00030280  00000-0  19120-2 0  9997,2 53984  53.2159 103.8626 0001738 109.0069 251.1112 15.08848231 23756,6917.855,95.437,540.923,538.518,0.0
